41925,IRIDIUM 112,2017,100.4,860.0,+,86.39,Active,1,LEO,USA,USA,Commercial/Government,Communications,Falcon,1 41925U 17003J   24327.45030121  .00000276  00000+0  91316-4 0  9994,2 41925  86.3946 327.2333 0002523  97.0955 263.0527 14.34218300411354,14.342183,0.0002523,LEO
41926,IRIDIUM 111,2017,100.4,860.0,+,86.39,Active,1,LEO,USA,USA,Commercial/Government,Communications,Falcon,1 41926U 17003K   24327.36784621  .00000325  00000+0  10882-3 0  9999,2 41926  86.3950 327.3264 0002407  89.0952 271.0520 14.34225245411294,14.34225245,0.0002407,LEO
42803,IRIDIUM 113,2017,100.4,860.0,+,86.4,Active,1,LEO,USA,USA,Commercial/Government,Communications,Falcon,1 42803U 17039A   24327.69667667  .00000599  00000+0  20680-3 0  9999,2 42803  86.4017 200.9653 0002451  92.2465 267.9011 14.34219527389273,14.34219527,0.0002451,LEO
42804,IRIDIUM 123,2017,100.4,860.0,+,86.4,Active,1,LEO,USA,USA,Commercial/Government,Communications,Falcon,1 42804U 17039B   24327.59859615  .00000789  00000+0  27457-3 0  9995,2 42804  86.3993 232.4519 0002266  75.0278 285.1168 14.34222820388029,14.3422282,0.0002266,LEO
42805,IRIDIUM 120,2017,100.4,860.0,+,86.4,Active,1,LEO,USA,USA,Commercial/Government,Communications,Falcon,1 42805U 17039C   24327.20193160  .00000594  00000+0  20515-3 0  9992,2 42805  86.4008 201.0285 0001991  77.6126 282.5292 14.34217784389195,14.34217784,0.0001991,LEO
42806,IRIDIUM 115,2017,99.77,860.0,+,86.45,Active,1,LEO,USA,USA,Commercial/Government,Communications,Falcon,1 42806U 17039D   24327.55513732  .00000794  00000+0  23006-3 0  9992,2 42806  86.4546 200.9294 0002269  75.1460 284.9992 14.43289242391817,14.43289242,0.0002269,LEO
42807,IRIDIUM 118,2017,100.4,860.0,+,86.4,Active,1,LEO,USA,USA,Commercial/Government,Communications,Falcon,1 42807U 17039E   24327.42100903  .00000673  00000+0  23312-3 0  9997,2 42807  86.3996 232.5265 0002153  86.5546 273.5896 14.34222582387993,14.34222582,0.0002153,LEO
42808,IRIDIUM 117,2017,100.4,860.0,+,86.4,Active,1,LEO,USA,USA,Commercial/Government,Communications,Falcon,1 42808U 17039F   24327.30049457  .00000637  00000+0  22054-3 0  9993,2 42808  86.3995 232.5400 0002245  79.2905 280.8544 14.34220587388001,14.34220587,0.0002245,LEO
